{
  "norad_id": 64148,
  "name": "STARLINK-34213",
  "history": [
    {
      "epoch": "2026-03-28T21:12:27.754848Z",
      "apogee_km": 550.1616820899171,
      "perigee_km": 548.8378107076805,
      "latitude_deg": 5.053005920310144e-05,
      "longitude_deg": -4.02055751717826,
      "height_km": 553.2096425173421,
      "semi_major_axis_km": 6927.636746398799,
      "eccentricity": 9.555e-05,
      "inclination_deg": 97.6046,
      "raan_deg": 140.3928,
      "arg_perigee_deg": 167.0017,
      "mean_anomaly_deg": 193.1235,
      "mean_motion_rev_day": 15.05653719
    },
    {
      "epoch": "2026-03-29T03:35:15.514368Z",
      "apogee_km": 550.1537300547625,
      "perigee_km": 548.8042304618084,
      "latitude_deg": -6.420861073092592e-06,
      "longitude_deg": -99.71956247096055,
      "height_km": 553.2012653427125,
      "semi_major_axis_km": 6927.615980258285,
      "eccentricity": 9.74e-05,
      "inclination_deg": 97.6042,
      "raan_deg": 140.6548,
      "arg_perigee_deg": 166.9563,
      "mean_anomaly_deg": 193.1689,
      "mean_motion_rev_day": 15.05660489
    },
    {
      "epoch": "2026-03-30T01:55:03.570816Z",
      "apogee_km": 550.2218563665438,
      "perigee_km": 548.735190075261,
      "latitude_deg": -5.9543048915181146e-05,
      "longitude_deg": -74.66955125073251,
      "height_km": 553.2256644895016,
      "semi_major_axis_km": 6927.615523220902,
      "eccentricity": 0.0001073,
      "inclination_deg": 97.6044,
      "raan_deg": 141.5721,
      "arg_perigee_deg": 156.6593,
      "mean_anomaly_deg": 203.4682,
      "mean_motion_rev_day": 15.05660638
    },
    {
      "epoch": "2026-03-30T01:55:03.571680Z",
      "apogee_km": 550.2220641950098,
      "perigee_km": 548.734982246795,
      "latitude_deg": 3.883024788855015e-05,
      "longitude_deg": -74.66956792216202,
      "height_km": 553.2258418921876,
      "semi_major_axis_km": 6927.615523220902,
      "eccentricity": 0.00010733,
      "inclination_deg": 97.6044,
      "raan_deg": 141.5721,
      "arg_perigee_deg": 156.6593,
      "mean_anomaly_deg": 203.4683,
      "mean_motion_rev_day": 15.05660638
    },
    {
      "epoch": "2026-03-30T14:40:39.609120Z",
      "apogee_km": 550.2710168220783,
      "perigee_km": 548.7177033185226,
      "latitude_deg": -2.0416407040441236e-06,
      "longitude_deg": 93.93054711274614,
      "height_km": 553.3062277674652,
      "semi_major_axis_km": 6927.6313600703,
      "eccentricity": 0.00011211,
      "inclination_deg": 97.6048,
      "raan_deg": 142.0964,
      "arg_perigee_deg": 164.1315,
      "mean_anomaly_deg": 195.9947,
      "mean_motion_rev_day": 15.05655475
    },
    {
      "epoch": "2026-03-31T09:49:03.894240Z",
      "apogee_km": 550.3070923909581,
      "perigee_km": 548.7012651657187,
      "latitude_deg": -2.7532345838614982e-05,
      "longitude_deg": 166.82940839889326,
      "height_km": 553.2741661934367,
      "semi_major_axis_km": 6927.641178778338,
      "eccentricity": 0.0001159,
      "inclination_deg": 97.6042,
      "raan_deg": 142.8825,
      "arg_perigee_deg": 151.4907,
      "mean_anomaly_deg": 208.6383,
      "mean_motion_rev_day": 15.05652274
    },
    {
      "epoch": "2026-04-01T20:54:27.980352Z",
      "apogee_km": 550.4096002963288,
      "perigee_km": 548.5765493785275,
      "latitude_deg": 4.759995393144625e-05,
      "longitude_deg": 0.48004545189170333,
      "height_km": 553.3586255295853,
      "semi_major_axis_km": 6927.630074837428,
      "eccentricity": 0.0001323,
      "inclination_deg": 97.6042,
      "raan_deg": 144.3246,
      "arg_perigee_deg": 150.9521,
      "mean_anomaly_deg": 209.178,
      "mean_motion_rev_day": 15.05655894
    },
    {
      "epoch": "2026-04-02T20:49:57.539712Z",
      "apogee_km": 550.1498281888971,
      "perigee_km": 548.7767778088437,
      "latitude_deg": 2.3443544659633688e-05,
      "longitude_deg": 1.604925615741708,
      "height_km": 553.207330615547,
      "semi_major_axis_km": 6927.600302998871,
      "eccentricity": 9.91e-05,
      "inclination_deg": 97.602,
      "raan_deg": 145.3052,
      "arg_perigee_deg": 171.4533,
      "mean_anomaly_deg": 188.6711,
      "mean_motion_rev_day": 15.056656
    },
    {
      "epoch": "2026-04-02T20:49:57.540576Z",
      "apogee_km": 550.1498281888971,
      "perigee_km": 548.7767778088437,
      "latitude_deg": 2.3443544151252912e-05,
      "longitude_deg": 1.60492200588344,
      "height_km": 553.207330615549,
      "semi_major_axis_km": 6927.600302998871,
      "eccentricity": 9.91e-05,
      "inclination_deg": 97.602,
      "raan_deg": 145.3052,
      "arg_perigee_deg": 171.4533,
      "mean_anomaly_deg": 188.6711,
      "mean_motion_rev_day": 15.056656
    },
    {
      "epoch": "2026-04-03T17:34:03.738144Z",
      "apogee_km": 550.415847154215,
      "perigee_km": 548.5772532099973,
      "latitude_deg": -2.4844724955049603e-05,
      "longitude_deg": 50.580346807940884,
      "height_km": 553.4308430897222,
      "semi_major_axis_km": 6927.633550182106,
      "eccentricity": 0.0001327,
      "inclination_deg": 97.6033,
      "raan_deg": 146.158,
      "arg_perigee_deg": 161.0748,
      "mean_anomaly_deg": 199.0528,
      "mean_motion_rev_day": 15.05654761
    },
    {
      "epoch": "2026-04-04T20:40:59.736000Z",
      "apogee_km": 550.470217514945,
      "perigee_km": 548.7050332803938,
      "latitude_deg": 6.736479898722998e-05,
      "longitude_deg": 3.8475130571682596,
      "height_km": 553.3843563242139,
      "semi_major_axis_km": 6927.724625397669,
      "eccentricity": 0.0001274,
      "inclination_deg": 97.6015,
      "raan_deg": 147.2721,
      "arg_perigee_deg": 146.0937,
      "mean_anomaly_deg": 214.0372,
      "mean_motion_rev_day": 15.0562507
    },
    {
      "epoch": "2026-04-05T14:13:42.030912Z",
      "apogee_km": 550.30200819724,
      "perigee_km": 548.6688904810335,
      "latitude_deg": 6.627708040199621e-05,
      "longitude_deg": 100.67073229767125,
      "height_km": 553.3124504624997,
      "semi_major_axis_km": 6927.622449339136,
      "eccentricity": 0.00011787,
      "inclination_deg": 97.6014,
      "raan_deg": 147.9921,
      "arg_perigee_deg": 158.9903,
      "mean_anomaly_deg": 201.1373,
      "mean_motion_rev_day": 15.0565838
    },
    {
      "epoch": "2026-04-05T17:25:05.979360Z",
      "apogee_km": 550.2971392744385,
      "perigee_km": 548.6566803005999,
      "latitude_deg": -1.5599858547108275e-05,
      "longitude_deg": 52.821149669818716,
      "height_km": 553.2985753955012,
      "semi_major_axis_km": 6927.613909787518,
      "eccentricity": 0.0001184,
      "inclination_deg": 97.6014,
      "raan_deg": 148.1233,
      "arg_perigee_deg": 157.3513,
      "mean_anomaly_deg": 202.7766,
      "mean_motion_rev_day": 15.05661164
    },
    {
      "epoch": "2026-04-06T02:59:17.927520Z",
      "apogee_km": 550.3533383353979,
      "perigee_km": 548.5916472413819,
      "latitude_deg": 3.6828536807642276e-05,
      "longitude_deg": -90.72876743192496,
      "height_km": 553.3036653185986,
      "semi_major_axis_km": 6927.60949278839,
      "eccentricity": 0.00012715,
      "inclination_deg": 97.6016,
      "raan_deg": 148.5162,
      "arg_perigee_deg": 150.5142,
      "mean_anomaly_deg": 209.6157,
      "mean_motion_rev_day": 15.05662604
    },
    {
      "epoch": "2026-04-07T09:17:34.885248Z",
      "apogee_km": 550.3740941282149,
      "perigee_km": 548.5291387278876,
      "latitude_deg": -3.8065344513582446e-06,
      "longitude_deg": 174.70130721818464,
      "height_km": 553.3119973464771,
      "semi_major_axis_km": 6927.588616428051,
      "eccentricity": 0.00013316,
      "inclination_deg": 97.6016,
      "raan_deg": 149.7615,
      "arg_perigee_deg": 149.6452,
      "mean_anomaly_deg": 210.4852,
      "mean_motion_rev_day": 15.0566941
    },
    {
      "epoch": "2026-04-07T20:27:28.558368Z",
      "apogee_km": 550.3820076552547,
      "perigee_km": 548.5461933636188,
      "latitude_deg": 4.129535076460087e-06,
      "longitude_deg": 7.2275402730274925,
      "height_km": 553.3522302804831,
      "semi_major_axis_km": 6927.601100509436,
      "eccentricity": 0.0001325,
      "inclination_deg": 97.6014,
      "raan_deg": 150.2199,
      "arg_perigee_deg": 153.8033,
      "mean_anomaly_deg": 206.3261,
      "mean_motion_rev_day": 15.0566534
    },
    {
      "epoch": "2026-04-08T14:00:09.941760Z",
      "apogee_km": 550.2431610690537,
      "perigee_km": 548.6811260141676,
      "latitude_deg": 9.325090933051809e-06,
      "longitude_deg": 104.05556603665461,
      "height_km": 553.3015097043447,
      "semi_major_axis_km": 6927.59914354161,
      "eccentricity": 0.00011274,
      "inclination_deg": 97.6024,
      "raan_deg": 150.9409,
      "arg_perigee_deg": 172.4408,
      "mean_anomaly_deg": 187.6836,
      "mean_motion_rev_day": 15.05665978
    },
    {
      "epoch": "2026-04-08T17:11:34.080288Z",
      "apogee_km": 550.3877179294932,
      "perigee_km": 548.5901375537624,
      "latitude_deg": -6.148292978989437e-05,
      "longitude_deg": 56.204587598744155,
      "height_km": 553.402929707356,
      "semi_major_axis_km": 6927.6259277416275,
      "eccentricity": 0.00012974,
      "inclination_deg": 97.6011,
      "raan_deg": 151.0715,
      "arg_perigee_deg": 160.8852,
      "mean_anomaly_deg": 199.2423,
      "mean_motion_rev_day": 15.05657246
    },
    {
      "epoch": "2026-04-10T01:05:34.139328Z",
      "apogee_km": 550.3602684473317,
      "perigee_km": 548.6095198422427,
      "latitude_deg": -2.9331408181345275e-05,
      "longitude_deg": -62.29485368293926,
      "height_km": 553.2890964822684,
      "semi_major_axis_km": 6927.621894144787,
      "eccentricity": 0.00012636,
      "inclination_deg": 97.6015,
      "raan_deg": 152.3824,
      "arg_perigee_deg": 147.693,
      "mean_anomaly_deg": 212.4374,
      "mean_motion_rev_day": 15.05658561
    }
  ]
}